0 COSMOS 2251 DEB
1 36614U 93036BEC 13287.26752741  .00001292  00000-0  46170-3 0  1713
2 36614 074.0356 140.9016 0023824 214.1421 145.9127 14.34965117222020
0 COSMOS 2251 DEB
1 36614U 93036BEC 13293.89047571  .00002507  00000-0  88625-3 0  1729
2 36614 074.0280 128.7516 0024234 200.2217 159.7978 14.34993516222964
